[{"OBJECT_NAME":"COSMOS 2493 (SKRL-756 1)","OBJECT_ID":"2013-078A","EPOCH":"2026-03-09T21:08:46.717728","MEAN_MOTION":15.01584319,"ECCENTRICITY":0.00118545,"INCLINATION":82.4165,"RA_OF_ASC_NODE":358.3033,"ARG_OF_PERICENTER":214.7485,"MEAN_ANOMALY":145.2966,"EPHEMERIS_TYPE":0,"CLASSIFICATION_TYPE":"U","NORAD_CAT_ID":39490,"ELEMENT_SET_NO":999,"REV_AT_EPOCH":66305,"BSTAR":0.00040276291,"MEAN_MOTION_DOT":5.252e-5,"MEAN_MOTION_DDOT":0},{"OBJECT_NAME":"STARLINK-6374","OBJECT_ID":"2023-099L","EPOCH":"2026-03-09T13:00:27.232704","MEAN_MOTION":15.02534475,"ECCENTRICITY":0.00012431,"INCLINATION":43.0042,"RA_OF_ASC_NODE":249.8327,"ARG_OF_PERICENTER":266.192,"MEAN_ANOMALY":93.878,"EPHEMERIS_TYPE":0,"CLASSIFICATION_TYPE":"U","NORAD_CAT_ID":57338,"ELEMENT_SET_NO":999,"REV_AT_EPOCH":14609,"BSTAR":-9.089588e-6,"MEAN_MOTION_DOT":-3.26e-6,"MEAN_MOTION_DDOT":0}]
